[{"OBJECT_NAME":"LIZZIESAT-3 (LS-3)","OBJECT_ID":"2025-052Z","EPOCH":"2026-03-09T23:14:46.856832","MEAN_MOTION":15.20716998,"ECCENTRICITY":0.00070924,"INCLINATION":97.4033,"RA_OF_ASC_NODE":322.5624,"ARG_OF_PERICENTER":136.4425,"MEAN_ANOMALY":223.7371,"EPHEMERIS_TYPE":0,"CLASSIFICATION_TYPE":"U","NORAD_CAT_ID":63233,"ELEMENT_SET_NO":999,"REV_AT_EPOCH":5472,"BSTAR":0.00032646441,"MEAN_MOTION_DOT":7.117e-5,"MEAN_MOTION_DDOT":0},{"OBJECT_NAME":"OBJECT V","OBJECT_ID":"2025-313V","EPOCH":"2026-03-09T22:24:14.678208","MEAN_MOTION":15.21825421,"ECCENTRICITY":0.00137871,"INCLINATION":97.401,"RA_OF_ASC_NODE":145.2021,"ARG_OF_PERICENTER":3.3713,"MEAN_ANOMALY":356.7614,"EPHEMERIS_TYPE":0,"CLASSIFICATION_TYPE":"U","NORAD_CAT_ID":67267,"ELEMENT_SET_NO":999,"REV_AT_EPOCH":1085,"BSTAR":0.00061746121,"MEAN_MOTION_DOT":0.00014007,"MEAN_MOTION_DDOT":0}]
